{
  "type": "FeatureCollection",
  "features": [
    {
      "type": "Feature",
      "properties": {
        "norad_id": 34765,
        "name": "IRIDIUM 33 DEB",
        "group": "iridium-33-debris",
        "lat": -21.531753081709997,
        "lon": 33.24443107968648,
        "alt_km": 766.2536554931903,
        "timestamp": "2025-12-08T05:48:09.418932+00:00",
        "meta_object_name": "IRIDIUM 33 DEB",
        "meta_object_id": "1997-051LJ",
        "meta_epoch": "2025-12-07T22:23:18.585600",
        "meta_mean_motion": 14.40446103,
        "meta_eccentricity": 0.00149735,
        "meta_inclination": 86.3396,
        "meta_ra_of_asc_node": 34.8242,
        "meta_arg_of_pericenter": 228.3998,
        "meta_mean_anomaly": 309.0487,
        "meta_ephemeris_type": 0,
        "meta_classification_type": "U",
        "meta_norad_cat_id": 34765,
        "meta_element_set_no": 999,
        "meta_rev_at_epoch": 87544,
        "meta_bstar": 0.00062060409,
        "meta_mean_motion_dot": 1.993e-05,
        "meta_mean_motion_ddot": 0,
        "tle_line1": "1 34765U 97051LJ  25341.93285400  .00001993  00000+0  62060-3 0  9991",
        "tle_line2": "2 34765  86.3396  34.8242 0014973 228.3998 309.0487 14.40446103875446"
      },
      "geometry": {
        "type": "Point",
        "coordinates": [
          33.24443107968648,
          -21.531753081709997
        ]
      }
    },
    {
      "type": "Feature",
      "properties": {
        "norad_id": 34833,
        "name": "IRIDIUM 33 DEB",
        "group": "iridium-33-debris",
        "lat": -71.35950572666319,
        "lon": -116.29054807335694,
        "alt_km": 737.1310773994783,
        "timestamp": "2025-12-08T05:48:09.418942+00:00",
        "meta_object_name": "IRIDIUM 33 DEB",
        "meta_object_id": "1997-051MH",
        "meta_epoch": "2025-12-07T16:06:42.958656",
        "meta_mean_motion": 14.52331498,
        "meta_eccentricity": 0.00217476,
        "meta_inclination": 86.3933,
        "meta_ra_of_asc_node": 53.1785,
        "meta_arg_of_pericenter": 114.0848,
        "meta_mean_anomaly": 36.8101,
        "meta_ephemeris_type": 0,
        "meta_classification_type": "U",
        "meta_norad_cat_id": 34833,
        "meta_element_set_no": 999,
        "meta_rev_at_epoch": 87641,
        "meta_bstar": 0.0013775524,
        "meta_mean_motion_dot": 5.64e-05,
        "meta_mean_motion_ddot": 0,
        "tle_line1": "1 34833U 97051MH  25341.67133054  .00005640  00000+0  13776-2 0  9997",
        "tle_line2": "2 34833  86.3933  53.1785 0021747 114.0848  36.8101 14.52331498876416"
      },
      "geometry": {
        "type": "Point",
        "coordinates": [
          -116.29054807335694,
          -71.35950572666319
        ]
      }
    },
    {
      "type": "Feature",
      "properties": {
        "norad_id": 34870,
        "name": "IRIDIUM 33 DEB",
        "group": "iridium-33-debris",
        "lat": -15.553661479873663,
        "lon": 137.1719366423355,
        "alt_km": 635.1090018930645,
        "timestamp": "2025-12-08T05:48:09.418951+00:00",
        "meta_object_name": "IRIDIUM 33 DEB",
        "meta_object_id": "1997-051MQ",
        "meta_epoch": "2025-12-07T16:41:29.147136",
        "meta_mean_motion": 14.76276846,
        "meta_eccentricity": 0.00154613,
        "meta_inclination": 86.3098,
        "meta_ra_of_asc_node": 316.3928,
        "meta_arg_of_pericenter": 201.8854,
        "meta_mean_anomaly": 332.1192,
        "meta_ephemeris_type": 0,
        "meta_classification_type": "U",
        "meta_norad_cat_id": 34870,
        "meta_element_set_no": 999,
        "meta_rev_at_epoch": 88836,
        "meta_bstar": 0.0025960003,
        "meta_mean_motion_dot": 0.00018071,
        "meta_mean_motion_ddot": 0,
        "tle_line1": "1 34870U 97051MQ  25341.69547624  .00018071  00000+0  25960-2 0  9992",
        "tle_line2": "2 34870  86.3098 316.3928 0015461 201.8854 332.1192 14.76276846888360"
      },
      "geometry": {
        "type": "Point",
        "coordinates": [
          137.1719366423355,
          -15.553661479873663
        ]
      }
    },
    {
      "type": "Feature",
      "properties": {
        "norad_id": 34896,
        "name": "IRIDIUM 33 DEB",
        "group": "iridium-33-debris",
        "lat": -20.093218268776013,
        "lon": 150.04833462292737,
        "alt_km": 664.0745773439312,
        "timestamp": "2025-12-08T05:48:09.418962+00:00",
        "meta_object_name": "IRIDIUM 33 DEB",
        "meta_object_id": "1997-051MY",
        "meta_epoch": "2025-12-07T22:28:25.315968",
        "meta_mean_motion": 14.6620206,
        "meta_eccentricity": 0.00239168,
        "meta_inclination": 86.3288,
        "meta_ra_of_asc_node": 328.8394,
        "meta_arg_of_pericenter": 232.3363,
        "meta_mean_anomaly": 157.0187,
        "meta_ephemeris_type": 0,
        "meta_classification_type": "U",
        "meta_norad_cat_id": 34896,
        "meta_element_set_no": 999,
        "meta_rev_at_epoch": 87549,
        "meta_bstar": 0.001346042,
        "meta_mean_motion_dot": 7.462e-05,
        "meta_mean_motion_ddot": 0,
        "tle_line1": "1 34896U 97051MY  25341.93640412  .00007462  00000+0  13460-2 0  9990",
        "tle_line2": "2 34896  86.3288 328.8394 0023916 232.3363 157.0187 14.66202060875496"
      },
      "geometry": {
        "type": "Point",
        "coordinates": [
          150.04833462292737,
          -20.093218268776013
        ]
      }
    },
    {
      "type": "Feature",
      "properties": {
        "norad_id": 34926,
        "name": "IRIDIUM 33 DEB",
        "group": "iridium-33-debris",
        "lat": 59.01554493093479,
        "lon": -176.11177913579846,
        "alt_km": 760.1649836166625,
        "timestamp": "2025-12-08T05:48:09.418972+00:00",
        "meta_object_name": "IRIDIUM 33 DEB",
        "meta_object_id": "1997-051NF",
        "meta_epoch": "2025-12-07T13:26:03.158592",
        "meta_mean_motion": 14.54055785,
        "meta_eccentricity": 0.00761486,
        "meta_inclination": 86.1317,
        "meta_ra_of_asc_node": 10.6739,
        "meta_arg_of_pericenter": 310.513,
        "meta_mean_anomaly": 202.227,
        "meta_ephemeris_type": 0,
        "meta_classification_type": "U",
        "meta_norad_cat_id": 34926,
        "meta_element_set_no": 999,
        "meta_rev_at_epoch": 86381,
        "meta_bstar": 0.0081725405,
        "meta_mean_motion_dot": 0.00036005,
        "meta_mean_motion_ddot": 0,
        "tle_line1": "1 34926U 97051NF  25341.55975878  .00036005  00000+0  81725-2 0  9993",
        "tle_line2": "2 34926  86.1317  10.6739 0076148 310.5130 202.2270 14.54055785863812"
      },
      "geometry": {
        "type": "Point",
        "coordinates": [
          -176.11177913579846,
          59.01554493093479
        ]
      }
    },
    {
      "type": "Feature",
      "properties": {
        "norad_id": 34985,
        "name": "IRIDIUM 33 DEB",
        "group": "iridium-33-debris",
        "lat": 82.67948920482647,
        "lon": 88.4154125852161,
        "alt_km": 757.2845209960524,
        "timestamp": "2025-12-08T05:48:09.418982+00:00",
        "meta_object_name": "IRIDIUM 33 DEB",
        "meta_object_id": "1997-051NR",
        "meta_epoch": "2025-12-07T23:19:57.204768",
        "meta_mean_motion": 14.41977282,
        "meta_eccentricity": 0.00202615,
        "meta_inclination": 86.3696,
        "meta_ra_of_asc_node": 58.9132,
        "meta_arg_of_pericenter": 236.1958,
        "meta_mean_anomaly": 249.0046,
        "meta_ephemeris_type": 0,
        "meta_classification_type": "U",
        "meta_norad_cat_id": 34985,
        "meta_element_set_no": 999,
        "meta_rev_at_epoch": 87106,
        "meta_bstar": 0.0009890177,
        "meta_mean_motion_dot": 3.268e-05,
        "meta_mean_motion_ddot": 0,
        "tle_line1": "1 34985U 97051NR  25341.97218987  .00003268  00000+0  98902-3 0  9996",
        "tle_line2": "2 34985  86.3696  58.9132 0020261 236.1958 249.0046 14.41977282871064"
      },
      "geometry": {
        "type": "Point",
        "coordinates": [
          88.4154125852161,
          82.67948920482647
        ]
      }
    },
    {
      "type": "Feature",
      "properties": {
        "norad_id": 35051,
        "name": "IRIDIUM 33 DEB",
        "group": "iridium-33-debris",
        "lat": -73.46139539411315,
        "lon": -1.6801390478991347,
        "alt_km": 748.53402865919,
        "timestamp": "2025-12-08T05:48:09.418992+00:00",
        "meta_object_name": "IRIDIUM 33 DEB",
        "meta_object_id": "1997-051NX",
        "meta_epoch": "2025-12-05T08:27:53.565120",
        "meta_mean_motion": 14.47546386,
        "meta_eccentricity": 0.00106363,
        "meta_inclination": 86.3242,
        "meta_ra_of_asc_node": 12.0813,
        "meta_arg_of_pericenter": 111.2483,
        "meta_mean_anomaly": 248.9857,
        "meta_ephemeris_type": 0,
        "meta_classification_type": "U",
        "meta_norad_cat_id": 35051,
        "meta_element_set_no": 999,
        "meta_rev_at_epoch": 86889,
        "meta_bstar": 0.0012192117,
        "meta_mean_motion_dot": 4.506e-05,
        "meta_mean_motion_ddot": 0,
        "tle_line1": "1 35051U 97051NX  25339.35270330  .00004506  00000+0  12192-2 0  9992",
        "tle_line2": "2 35051  86.3242  12.0813 0010636 111.2483 248.9857 14.47546386868892"
      },
      "geometry": {
        "type": "Point",
        "coordinates": [
          -1.6801390478991347,
          -73.46139539411315
        ]
      }
    }
  ]
}